STARLINK-36520          
1 67466U 26008X   26039.50002314 -.00070378  00000+0 -12034-2 0  9998
2 67466  42.9999  11.2631 0001820 258.8136 125.5872 15.50606056  5101
STARLINK-36425          
1 67467U 26008Y   26039.50002314 -.00060992  00000+0 -10415-2 0  9991
2 67467  43.0000  11.6522 0001179 269.7841 317.1643 15.50591829  5107
STARLINK-36414          
1 67468U 26008Z   26039.50002314 -.00072455  00000+0 -12399-2 0  9992
2 67468  43.0003  11.0742 0001158 269.2758 190.6028 15.50596564  5100
STARLINK-36441          
1 67469U 26008AA  26039.50002314 -.00472294  00000+0 -84514-2 0  9996
2 67469  43.0002  11.2181 0001727 273.1681 127.1802 15.50870079  5101
STARLINK-36454          
1 67470U 26008AB  26039.50002314 -.00072872  00000+0 -12470-2 0  9998
2 67470  43.0001  11.1298 0001426 269.8265 166.0632 15.50598609  5105
STARLINK-36334          
1 67471U 26008AC  26039.50002314 -.02060184  00000+0 -41646-1 0  9990
2 67471  43.0002  10.9722 0001040 274.8580 225.5960 15.49068478  5103
STARLINK-36269          
1 67472U 26008AD  26039.50002314 -.00038173  00000+0 -64809-3 0  9990
2 67472  42.9999  11.0499 0001088 257.3653 210.8825 15.50577521  5124
STARLINK-36408          
1 67473U 26008AE  26039.50002314  .00102442  00000+0  17328-2 0  9993
2 67473  43.0001  11.1630 0000955 276.4741 145.5504 15.50520870  5124
ALSAT-3A                
1 67474U 26009A   26039.45032182  .00007690  00000+0  32501-3 0  9995
2 67474  97.4676 114.1105 0012414 170.7332 189.4136 15.23446310  3674
CZ-2C R/B               
1 67475U 26009B   26039.37892271  .00003691  00000+0  24886-3 0  9994
2 67475  97.1752 112.0818 0100428 139.3976 221.4796 15.03126553  3674
TIANQI-37               
1 67476U 26010A   26039.27753693  .00000165  00000+0  15719-3 0  9998
2 67476  44.9825 296.6529 0012909  70.2546 289.9683 14.13528441  3324
TIANQI-38               
1 67477U 26010B   26039.27310946  .00000208  00000+0  17865-3 0  9991
2 67477  44.9788 296.6199 0011754  75.6443 284.5700 14.13905796  3321
